{"type": "FeatureCollection", "features": [ {"type": "Feature", "properties": {"norad_id": 31026, "name": "FENGYUN 1C DEB", "group": "fengyun-1c-debris", "lat": 67.01137029287536, "lon": 120.15176843123932, "alt_km": 929.3746319315569, "timestamp": "2025-12-08T23:34:04.249618+00:00", "meta": {"OBJECT_NAME": "FENGYUN 1C DEB", "OBJECT_ID": "1999-025BDU", "EPOCH": "2025-12-08T02:15:12.544416", "MEAN_MOTION": 13.83396028, "ECCENTRICITY": 0.01341041, "INCLINATION": 98.7787, "RA_OF_ASC_NODE": 277.9623, "ARG_OF_PERICENTER": 195.1309, "MEAN_ANOMALY": 177.1483, "EPHEMERIS_TYPE": 0, "CLASSIFICATION_TYPE": "U", "NORAD_CAT_ID": 31026, "ELEMENT_SET_NO": 999, "REV_AT_EPOCH": 67962, "BSTAR": 0.00024619912, "MEAN_MOTION_DOT": 2.5e-06, "MEAN_MOTION_DDOT": 0}, "tle": {"line1": "1 31026U 99025BDU 25342.09389519  .00000250  00000+0  24620-3 0  9990", "line2": "2 31026  98.7787 277.9623 0134104 195.1309 177.1483 13.83396028679621"}}, "geometry": {"type": "Point", "coordinates": [120.15176843123932, 67.01137029287536]}}, {"type": "Feature", "properties": {"norad_id": 31028, "name": "FENGYUN 1C DEB", "group": "fengyun-1c-debris", "lat": 45.71013387478863, "lon": -93.95902726535101, "alt_km": 950.4816497634429, "timestamp": "2025-12-08T23:34:04.249629+00:00", "meta": {"OBJECT_NAME": "FENGYUN 1C DEB", "OBJECT_ID": "1999-025BDW", "EPOCH": "2025-11-26T01:54:24.970752", "MEAN_MOTION": 13.89048666, "ECCENTRICITY": 0.01654825, "INCLINATION": 98.7043, "RA_OF_ASC_NODE": 263.016, "ARG_OF_PERICENTER": 340.0889, "MEAN_ANOMALY": 19.3862, "EPHEMERIS_TYPE": 0, "CLASSIFICATION_TYPE": "U", "NORAD_CAT_ID": 31028, "ELEMENT_SET_NO": 999, "REV_AT_EPOCH": 61772, "BSTAR": 0.00043609826, "MEAN_MOTION_DOT": 5.49e-06, "MEAN_MOTION_DDOT": 0}, "tle": {"line1": "1 31028U 99025BDW 25330.07945568  .00000549  00000+0  43610-3 0  9990", "line2": "2 31028  98.7043 263.0160 0165482 340.0889  19.3862 13.89048666617726"}}, "geometry": {"type": "Point", "coordinates": [-93.95902726535101, 45.71013387478863]}}, {"type": "Feature", "properties": {"norad_id": 31029, "name": "FENGYUN 1C DEB", "group": "fengyun-1c-debris", "lat": 71.57621830631915, "lon": -148.12799241999798, "alt_km": 707.0987014071679, "timestamp": "2025-12-08T23:34:04.249639+00:00", "meta": {"OBJECT_NAME": "FENGYUN 1C DEB", "OBJECT_ID": "1999-025BDX", "EPOCH": "2025-12-07T23:51:36.558432", "MEAN_MOTION": 14.34307857, "ECCENTRICITY": 0.00900782, "INCLINATION": 98.8589, "RA_OF_ASC_NODE": 238.7767, "ARG_OF_PERICENTER": 87.6107, "MEAN_ANOMALY": 288.6727, "EPHEMERIS_TYPE": 0, "CLASSIFICATION_TYPE": "U", "NORAD_CAT_ID": 31029, "ELEMENT_SET_NO": 999, "REV_AT_EPOCH": 97728, "BSTAR": 0.00049191155, "MEAN_MOTION_DOT": 1.4e-05, "MEAN_MOTION_DDOT": 0}, "tle": {"line1": "1 31029U 99025BDX 25341.99417313  .00001400  00000+0  49191-3 0  9993", "line2": "2 31029  98.8589 238.7767 0090078  87.6107 288.6727 14.34307857977282"}}, "geometry": {"type": "Point", "coordinates": [-148.12799241999798, 71.57621830631915]}}, {"type": "Feature", "properties": {"norad_id": 31030, "name": "FENGYUN 1C DEB", "group": "fengyun-1c-debris", "lat": 38.46700463554245, "lon": 37.874698494508245, "alt_km": 798.7333355996407, "timestamp": "2025-12-08T23:34:04.249650+00:00", "meta": {"OBJECT_NAME": "FENGYUN 1C DEB", "OBJECT_ID": "1999-025BDY", "EPOCH": "2025-12-08T15:40:05.884032", "MEAN_MOTION": 14.23648706, "ECCENTRICITY": 0.00280517, "INCLINATION": 98.7668, "RA_OF_ASC_NODE": 44.589, "ARG_OF_PERICENTER": 95.8447, "MEAN_ANOMALY": 57.5385, "EPHEMERIS_TYPE": 0, "CLASSIFICATION_TYPE": "U", "NORAD_CAT_ID": 31030, "ELEMENT_SET_NO": 999, "REV_AT_EPOCH": 96646, "BSTAR": 0.0015375035, "MEAN_MOTION_DOT": 3.477e-05, "MEAN_MOTION_DDOT": 0}, "tle": {"line1": "1 31030U 99025BDY 25342.65284588  .00003477  00000+0  15375-2 0  9997", "line2": "2 31030  98.7668  44.5890 0028051  95.8447  57.5385 14.23648706966461"}}, "geometry": {"type": "Point", "coordinates": [37.874698494508245, 38.46700463554245]}}, {"type": "Feature", "properties": {"norad_id": 31031, "name": "FENGYUN 1C DEB", "group": "fengyun-1c-debris", "lat": 74.90621129846892, "lon": -136.33889236374125, "alt_km": 824.7153454635109, "timestamp": "2025-12-08T23:34:04.249660+00:00", "meta": {"OBJECT_NAME": "FENGYUN 1C DEB", "OBJECT_ID": "1999-025BDZ", "EPOCH": "2025-12-06T17:15:45.296928", "MEAN_MOTION": 14.20967849, "ECCENTRICITY": 0.0027503, "INCLINATION": 99.0712, "RA_OF_ASC_NODE": 257.6633, "ARG_OF_PERICENTER": 204.2383, "MEAN_ANOMALY": 185.4692, "EPHEMERIS_TYPE": 0, "CLASSIFICATION_TYPE": "U", "NORAD_CAT_ID": 31031, "ELEMENT_SET_NO": 999, "REV_AT_EPOCH": 96769, "BSTAR": 0.00074154334, "MEAN_MOTION_DOT": 1.566e-05, "MEAN_MOTION_DDOT": 0}, "tle": {"line1": "1 31031U 99025BDZ 25340.71927427  .00001566  00000+0  74154-3 0  9997", "line2": "2 31031  99.0712 257.6633 0027503 204.2383 185.4692 14.20967849967691"}}, "geometry": {"type": "Point", "coordinates": [-136.33889236374125, 74.90621129846892]}}, {"type": "Feature", "properties": {"norad_id": 31032, "name": "FENGYUN 1C DEB", "group": "fengyun-1c-debris", "lat": -7.638978605400033, "lon": -7.0358079295437825, "alt_km": 973.4105110700284, "timestamp": "2025-12-08T23:34:04.249671+00:00", "meta": {"OBJECT_NAME": "FENGYUN 1C DEB", "OBJECT_ID": "1999-025BEA", "EPOCH": "2025-12-08T06:35:10.505760", "MEAN_MOTION": 14.02173387, "ECCENTRICITY": 0.01388806, "INCLINATION": 99.4002, "RA_OF_ASC_NODE": 350.9616, "ARG_OF_PERICENTER": 208.1807, "MEAN_ANOMALY": 173.558, "EPHEMERIS_TYPE": 0, "CLASSIFICATION_TYPE": "U", "NORAD_CAT_ID": 31032, "ELEMENT_SET_NO": 999, "REV_AT_EPOCH": 94919, "BSTAR": 0.0019365631, "MEAN_MOTION_DOT": 3.177e-05, "MEAN_MOTION_DDOT": 0}, "tle": {"line1": "1 31032U 99025BEA 25342.27442715  .00003177  00000+0  19366-2 0  9996", "line2": "2 31032  99.4002 350.9616 0138880 208.1807 173.5580 14.02173387949196"}}, "geometry": {"type": "Point", "coordinates": [-7.0358079295437825, -7.638978605400033]}}, {"type": "Feature", "properties": {"norad_id": 31033, "name": "FENGYUN 1C DEB", "group": "fengyun-1c-debris", "lat": 61.2935371753311, "lon": -54.29023397518298, "alt_km": 735.9726902266693, "timestamp": "2025-12-08T23:34:04.249681+00:00", "meta": {"OBJECT_NAME": "FENGYUN 1C DEB", "OBJECT_ID": "1999-025BEB", "EPOCH": "2025-12-08T10:30:50.243328", "MEAN_MOTION": 14.27445539, "ECCENTRICITY": 0.01540095, "INCLINATION": 98.4379, "RA_OF_ASC_NODE": 320.9116, "ARG_OF_PERICENTER": 123.0304, "MEAN_ANOMALY": 27.5242, "EPHEMERIS_TYPE": 0, "CLASSIFICATION_TYPE": "U", "NORAD_CAT_ID": 31033, "ELEMENT_SET_NO": 999, "REV_AT_EPOCH": 97284, "BSTAR": 0.0003115518, "MEAN_MOTION_DOT": 8.25e-06, "MEAN_MOTION_DDOT": 0}, "tle": {"line1": "1 31033U 99025BEB 25342.43808152  .00000825  00000+0  31155-3 0  9994", "line2": "2 31033  98.4379 320.9116 0154009 123.0304  27.5242 14.27445539972842"}}, "geometry": {"type": "Point", "coordinates": [-54.29023397518298, 61.2935371753311]}}, {"type": "Feature", "properties": {"norad_id": 31036, "name": "FENGYUN 1C DEB", "group": "fengyun-1c-debris", "lat": -57.05824257059078, "lon": 103.25025989262483, "alt_km": 647.5447867094772, "timestamp": "2025-12-08T23:34:04.249692+00:00", "meta": {"OBJECT_NAME": "FENGYUN 1C DEB", "OBJECT_ID": "1999-025BEE", "EPOCH": "2025-12-08T05:44:25.920096", "MEAN_MOTION": 14.49059493, "ECCENTRICITY": 0.01376047, "INCLINATION": 98.9154, "RA_OF_ASC_NODE": 88.4459, "ARG_OF_PERICENTER": 278.2122, "MEAN_ANOMALY": 110.3171, "EPHEMERIS_TYPE": 0, "CLASSIFICATION_TYPE": "U", "NORAD_CAT_ID": 31036, "ELEMENT_SET_NO": 999, "REV_AT_EPOCH": 57242, "BSTAR": 0.0004229533, "MEAN_MOTION_DOT": 1.753e-05, "MEAN_MOTION_DDOT": 0}, "tle": {"line1": "1 31036U 99025BEE 25342.23918889  .00001753  00000+0  42295-3 0  9992", "line2": "2 31036  98.9154  88.4459 0137604 278.2122 110.3171 14.49059493572426"}}, "geometry": {"type": "Point", "coordinates": [103.25025989262483, -57.05824257059078]}}, {"type": "Feature", "properties": {"norad_id": 31038, "name": "FENGYUN 1C DEB", "group": "fengyun-1c-debris", "lat": 36.36167657913912, "lon": -106.52318827586218, "alt_km": 743.2646299329681, "timestamp": "2025-12-08T23:34:04.249702+00:00", "meta": {"OBJECT_NAME": "FENGYUN 1C DEB", "OBJECT_ID": "1999-025BEG", "EPOCH": "2025-12-08T11:16:25.389984", "MEAN_MOTION": 14.45796817, "ECCENTRICITY": 0.00838997, "INCLINATION": 99.0127, "RA_OF_ASC_NODE": 66.2225, "ARG_OF_PERICENTER": 241.2201, "MEAN_ANOMALY": 118.0544, "EPHEMERIS_TYPE": 0, "CLASSIFICATION_TYPE": "U", "NORAD_CAT_ID": 31038, "ELEMENT_SET_NO": 999, "REV_AT_EPOCH": 98173, "BSTAR": 0.0010762544, "MEAN_MOTION_DOT": 3.936e-05, "MEAN_MOTION_DDOT": 0}, "tle": {"line1": "1 31038U 99025BEG 25342.46973831  .00003936  00000+0  10763-2 0  9996", "line2": "2 31038  99.0127  66.2225 0083899 241.2201 118.0544 14.45796817981730"}}, "geometry": {"type": "Point", "coordinates": [-106.52318827586218, 36.36167657913912]}}, {"type": "Feature", "properties": {"norad_id": 31040, "name": "FENGYUN 1C DEB", "group": "fengyun-1c-debris", "lat": -0.8298057279023147, "lon": 152.79894032827866, "alt_km": 795.4263859385273, "timestamp": "2025-12-08T23:34:04.249713+00:00", "meta": {"OBJECT_NAME": "FENGYUN 1C DEB", "OBJECT_ID": "1999-025BEJ", "EPOCH": "2025-12-08T11:35:31.129152", "MEAN_MOTION": 14.17663888, "ECCENTRICITY": 0.00620491, "INCLINATION": 98.6576, "RA_OF_ASC_NODE": 332.4391, "ARG_OF_PERICENTER": 206.3958, "MEAN_ANOMALY": 309.3862, "EPHEMERIS_TYPE": 0, "CLASSIFICATION_TYPE": "U", "NORAD_CAT_ID": 31040, "ELEMENT_SET_NO": 999, "REV_AT_EPOCH": 96646, "BSTAR": 0.0005472271, "MEAN_MOTION_DOT": 1.092e-05, "MEAN_MOTION_DDOT": 0}, "tle": {"line1": "1 31040U 99025BEJ 25342.48299918  .00001092  00000+0  54723-3 0  9994", "line2": "2 31040  98.6576 332.4391 0062049 206.3958 309.3862 14.17663888966464"}}, "geometry": {"type": "Point", "coordinates": [152.79894032827866, -0.8298057279023147]}}]}